41186,ORBCOMM FM115,2015,98.55,172.0,+,47.0,Active,1,LEO,USA,ORBCOMM,Commercial,Communications,Falcon,1 41186U 15081H   24265.33854225  .00002368  00000+0  51001-3 0  9994,2 41186  46.9969 237.1764 0001310 283.8969  76.1772 14.61258834468432,14.61258834,0.000131,LEO
41187,ORBCOMM FM108,2015,98.83,172.0,+,47.0,Active,1,LEO,USA,ORBCOMM,Commercial,Communications,Falcon,1 41187U 15081J   24265.49224811  .00001599  00000+0  38888-3 0  9997,2 41187  47.0037 295.0202 0001396 170.1941 189.8971 14.57039686467599,14.57039686,0.0001396,LEO
41188,ORBCOMM FM117,2015,98.83,172.0,+,47.0,Active,1,LEO,USA,ORBCOMM,Commercial,Communications,Falcon,1 41188U 15081K   24265.45851447  .00001813  00000+0  43595-3 0  9995,2 41188  47.0001 294.0322 0002272 184.7314 175.3550 14.57043836467632,14.57043836,0.0002272,LEO
41189,ORBCOMM FM116,2015,98.83,172.0,+,47.0,Active,1,LEO,USA,ORBCOMM,Commercial,Communications,Falcon,1 41189U 15081L   24265.58556601  .00002273  00000+0  53708-3 0  9992,2 41189  47.0027  23.2674 0003177 253.7024 106.3512 14.57055040466465,14.5705504,0.0003177,LEO
